[{"OBJECT_NAME":"STARLINK-3639","OBJECT_ID":"2022-017X","EPOCH":"2026-03-09T22:12:30.855168","MEAN_MOTION":15.0884289,"ECCENTRICITY":0.00013497,"INCLINATION":53.219,"RA_OF_ASC_NODE":348.0566,"ARG_OF_PERICENTER":115.454,"MEAN_ANOMALY":244.6592,"EPHEMERIS_TYPE":0,"CLASSIFICATION_TYPE":"U","NORAD_CAT_ID":51789,"ELEMENT_SET_NO":999,"REV_AT_EPOCH":22231,"BSTAR":5.9659178e-5,"MEAN_MOTION_DOT":6.62e-6,"MEAN_MOTION_DDOT":0},{"OBJECT_NAME":"OBJECT G","OBJECT_ID":"2025-292G","EPOCH":"2026-03-09T22:41:34.708704","MEAN_MOTION":15.05879657,"ECCENTRICITY":0.00150455,"INCLINATION":97.6425,"RA_OF_ASC_NODE":145.7524,"ARG_OF_PERICENTER":352.95,"MEAN_ANOMALY":7.1513,"EPHEMERIS_TYPE":0,"CLASSIFICATION_TYPE":"U","NORAD_CAT_ID":66999,"ELEMENT_SET_NO":999,"REV_AT_EPOCH":1351,"BSTAR":0.00047153864,"MEAN_MOTION_DOT":6.807e-5,"MEAN_MOTION_DDOT":0}]
